[{"OBJECT_NAME":"LEMUR-2-FURIAUS","OBJECT_ID":"2017-042R","EPOCH":"2026-03-09T23:04:27.745536","MEAN_MOTION":15.26272951,"ECCENTRICITY":0.00075374,"INCLINATION":97.3753,"RA_OF_ASC_NODE":248.499,"ARG_OF_PERICENTER":55.8686,"MEAN_ANOMALY":304.3266,"EPHEMERIS_TYPE":0,"CLASSIFICATION_TYPE":"U","NORAD_CAT_ID":42840,"ELEMENT_SET_NO":999,"REV_AT_EPOCH":47305,"BSTAR":0.00099966194,"MEAN_MOTION_DOT":0.00025928,"MEAN_MOTION_DDOT":0},{"OBJECT_NAME":"STARLINK-2029","OBJECT_ID":"2021-036AW","EPOCH":"2026-03-10T00:00:02.999808","MEAN_MOTION":15.21612256,"ECCENTRICITY":0.00015554,"INCLINATION":53.1203,"RA_OF_ASC_NODE":99.8001,"ARG_OF_PERICENTER":84.4684,"MEAN_ANOMALY":239.4047,"EPHEMERIS_TYPE":0,"CLASSIFICATION_TYPE":"U","NORAD_CAT_ID":48320,"ELEMENT_SET_NO":999,"REV_AT_EPOCH":574,"BSTAR":0.039856739,"MEAN_MOTION_DOT":0.00990666,"MEAN_MOTION_DDOT":0}]
